STARLINK-35976          
1 66534U 25265U   25332.58335648 -.01538501  00000+0 -71726-2 0  9990
2 66534  43.0008 138.7093 0001312 271.0829 257.1782 15.85074300  2724
STARLINK-35514          
1 66535U 25265V   25332.58335648 -.01542936  00000+0 -71905-2 0  9997
2 66535  43.0009 138.7042 0001366 269.3524 260.9346 15.85089493  2728
STARLINK-35640          
1 66536U 25265W   25332.58335648 -.01553483  00000+0 -72390-2 0  9996
2 66536  43.0008 138.6993 0001339 270.8726 261.3698 15.85110955  2704
STARLINK-35582          
1 66537U 25265X   25332.58335648 -.01558200  00000+0 -72631-2 0  9997
2 66537  43.0009 138.6933 0001452 266.9824 267.5540 15.85112391  2723
STARLINK-35577          
1 66538U 25265Y   25332.58335648 -.01564631  00000+0 -72986-2 0  9996
2 66538  43.0009 138.6872 0001471 267.2401 269.6527 15.85108363  2724
STARLINK-35697          
1 66539U 25265Z   25332.58335648 -.01583730  00000+0 -73978-2 0  9990
2 66539  43.0008 138.6809 0001366 268.8640 270.3405 15.85116924  2725
STARLINK-35818          
1 66540U 25265AA  25332.58335648 -.01589327  00000+0 -74223-2 0  9994
2 66540  43.0007 138.6764 0001291 268.5943 272.6468 15.85132695  2723
STARLINK-35796          
1 66541U 25265AB  25332.58335648 -.01591494  00000+0 -74268-2 0  9992
2 66541  43.0008 138.6714 0001374 263.6054 279.5552 15.85151221  2727
STARLINK-35833          
1 66542U 25265AC  25332.58335648 -.01602252  00000+0 -74807-2 0  9997
2 66542  43.0008 138.6661 0001363 270.3300 275.0116 15.85161054  2728
STARLINK-35315          
1 66543U 25265AD  25332.58335648 -.01606954  00000+0 -75002-2 0  9999
2 66543  43.0010 138.6605 0001387 268.5626 278.8052 15.85176280  2611
STARLINK-35728          
1 66544U 25265AE  25332.58335648 -.01612786  00000+0 -75226-2 0  9998
2 66544  43.0008 138.6561 0001380 265.6113 283.6491 15.85200151  2720
SHIJIAN-30A             
1 66545U 25266A   25332.71026897  .00011166  00000+0  60153-3 0  9994
2 66545  51.7981  38.5726 0012635 305.2951  54.6843 15.15201012  1450
