CCSDS_OMM_VERS = 2.0
CREATION_DATE  = 
ORIGINATOR     = 

OBJECT_NAME    = STARLINK-35976
OBJECT_ID      = 2025-265U
CENTER_NAME    = EARTH
REF_FRAME      = TEME
TIME_SYSTEM    = UTC
MEAN_ELEMENT_THEORY = SGP/SGP4

EPOCH          = 2025-11-28T14:00:01.999872
MEAN_MOTION    = 15.85074300
ECCENTRICITY   = .00013126
INCLINATION    = 43.0008
RA_OF_ASC_NODE = 138.7093
ARG_OF_PERICENTER = 271.0829
MEAN_ANOMALY   = 257.1782

EPHEMERIS_TYPE = 0
CLASSIFICATION_TYPE = U
NORAD_CAT_ID   = 66534
ELEMENT_SET_NO = 999
REV_AT_EPOCH   = 272
BSTAR          = -.71725548E-2
MEAN_MOTION_DOT = -.1538501E-1
MEAN_MOTION_DDOT = 0

CCSDS_OMM_VERS = 2.0
CREATION_DATE  = 
ORIGINATOR     = 

OBJECT_NAME    = STARLINK-35514
OBJECT_ID      = 2025-265V
CENTER_NAME    = EARTH
REF_FRAME      = TEME
TIME_SYSTEM    = UTC
MEAN_ELEMENT_THEORY = SGP/SGP4

EPOCH          = 2025-11-28T14:00:01.999872
MEAN_MOTION    = 15.85089493
ECCENTRICITY   = .00013668
INCLINATION    = 43.0009
RA_OF_ASC_NODE = 138.7042
ARG_OF_PERICENTER = 269.3524
MEAN_ANOMALY   = 260.9346

EPHEMERIS_TYPE = 0
CLASSIFICATION_TYPE = U
NORAD_CAT_ID   = 66535
ELEMENT_SET_NO = 999
REV_AT_EPOCH   = 272
BSTAR          = -.71905159E-2
MEAN_MOTION_DOT = -.1542936E-1
MEAN_MOTION_DDOT = 0

CCSDS_OMM_VERS = 2.0
CREATION_DATE  = 
ORIGINATOR     = 

OBJECT_NAME    = STARLINK-35640
OBJECT_ID      = 2025-265W
CENTER_NAME    = EARTH
REF_FRAME      = TEME
TIME_SYSTEM    = UTC
MEAN_ELEMENT_THEORY = SGP/SGP4

EPOCH          = 2025-11-28T14:00:01.999872
MEAN_MOTION    = 15.85110955
ECCENTRICITY   = .00013398
INCLINATION    = 43.0008
RA_OF_ASC_NODE = 138.6993
ARG_OF_PERICENTER = 270.8726
MEAN_ANOMALY   = 261.3698

EPHEMERIS_TYPE = 0
CLASSIFICATION_TYPE = U
NORAD_CAT_ID   = 66536
ELEMENT_SET_NO = 999
REV_AT_EPOCH   = 270
BSTAR          = -.72390181E-2
MEAN_MOTION_DOT = -.1553483E-1
MEAN_MOTION_DDOT = 0

CCSDS_OMM_VERS = 2.0
CREATION_DATE  = 
ORIGINATOR     = 

OBJECT_NAME    = STARLINK-35582
OBJECT_ID      = 2025-265X
CENTER_NAME    = EARTH
REF_FRAME      = TEME
TIME_SYSTEM    = UTC
MEAN_ELEMENT_THEORY = SGP/SGP4

EPOCH          = 2025-11-28T14:00:01.999872
MEAN_MOTION    = 15.85112391
ECCENTRICITY   = .00014524
INCLINATION    = 43.0009
RA_OF_ASC_NODE = 138.6933
ARG_OF_PERICENTER = 266.9824
MEAN_ANOMALY   = 267.5540

EPHEMERIS_TYPE = 0
CLASSIFICATION_TYPE = U
NORAD_CAT_ID   = 66537
ELEMENT_SET_NO = 999
REV_AT_EPOCH   = 272
BSTAR          = -.72630817E-2
MEAN_MOTION_DOT = -.15582E-1
MEAN_MOTION_DDOT = 0

CCSDS_OMM_VERS = 2.0
CREATION_DATE  = 
ORIGINATOR     = 

OBJECT_NAME    = STARLINK-35577
OBJECT_ID      = 2025-265Y
CENTER_NAME    = EARTH
REF_FRAME      = TEME
TIME_SYSTEM    = UTC
MEAN_ELEMENT_THEORY = SGP/SGP4

EPOCH          = 2025-11-28T14:00:01.999872
MEAN_MOTION    = 15.85108363
ECCENTRICITY   = .00014711
INCLINATION    = 43.0009
RA_OF_ASC_NODE = 138.6872
ARG_OF_PERICENTER = 267.2401
MEAN_ANOMALY   = 269.6527

EPHEMERIS_TYPE = 0
CLASSIFICATION_TYPE = U
NORAD_CAT_ID   = 66538
ELEMENT_SET_NO = 999
REV_AT_EPOCH   = 272
BSTAR          = -.72986258E-2
MEAN_MOTION_DOT = -.1564631E-1
MEAN_MOTION_DDOT = 0

CCSDS_OMM_VERS = 2.0
CREATION_DATE  = 
ORIGINATOR     = 

OBJECT_NAME    = STARLINK-35697
OBJECT_ID      = 2025-265Z
CENTER_NAME    = EARTH
REF_FRAME      = TEME
TIME_SYSTEM    = UTC
MEAN_ELEMENT_THEORY = SGP/SGP4

EPOCH          = 2025-11-28T14:00:01.999872
MEAN_MOTION    = 15.85116924
ECCENTRICITY   = .0001366
INCLINATION    = 43.0008
RA_OF_ASC_NODE = 138.6809
ARG_OF_PERICENTER = 268.8640
MEAN_ANOMALY   = 270.3405

EPHEMERIS_TYPE = 0
CLASSIFICATION_TYPE = U
NORAD_CAT_ID   = 66539
ELEMENT_SET_NO = 999
REV_AT_EPOCH   = 272
BSTAR          = -.73978058E-2
MEAN_MOTION_DOT = -.158373E-1
MEAN_MOTION_DDOT = 0

CCSDS_OMM_VERS = 2.0
CREATION_DATE  = 
ORIGINATOR     = 

OBJECT_NAME    = STARLINK-35818
OBJECT_ID      = 2025-265AA
CENTER_NAME    = EARTH
REF_FRAME      = TEME
TIME_SYSTEM    = UTC
MEAN_ELEMENT_THEORY = SGP/SGP4

EPOCH          = 2025-11-28T14:00:01.999872
MEAN_MOTION    = 15.85132695
ECCENTRICITY   = .00012914
INCLINATION    = 43.0007
RA_OF_ASC_NODE = 138.6764
ARG_OF_PERICENTER = 268.5943
MEAN_ANOMALY   = 272.6468

EPHEMERIS_TYPE = 0
CLASSIFICATION_TYPE = U
NORAD_CAT_ID   = 66540
ELEMENT_SET_NO = 999
REV_AT_EPOCH   = 272
BSTAR          = -.74223022E-2
MEAN_MOTION_DOT = -.1589327E-1
MEAN_MOTION_DDOT = 0

CCSDS_OMM_VERS = 2.0
CREATION_DATE  = 
ORIGINATOR     = 

OBJECT_NAME    = STARLINK-35796
OBJECT_ID      = 2025-265AB
CENTER_NAME    = EARTH
REF_FRAME      = TEME
TIME_SYSTEM    = UTC
MEAN_ELEMENT_THEORY = SGP/SGP4

EPOCH          = 2025-11-28T14:00:01.999872
MEAN_MOTION    = 15.85151221
ECCENTRICITY   = .0001374
INCLINATION    = 43.0008
RA_OF_ASC_NODE = 138.6714
ARG_OF_PERICENTER = 263.6054
MEAN_ANOMALY   = 279.5552

EPHEMERIS_TYPE = 0
CLASSIFICATION_TYPE = U
NORAD_CAT_ID   = 66541
ELEMENT_SET_NO = 999
REV_AT_EPOCH   = 272
BSTAR          = -.74267769E-2
MEAN_MOTION_DOT = -.1591494E-1
MEAN_MOTION_DDOT = 0

CCSDS_OMM_VERS = 2.0
CREATION_DATE  = 
ORIGINATOR     = 

OBJECT_NAME    = STARLINK-35833
OBJECT_ID      = 2025-265AC
CENTER_NAME    = EARTH
REF_FRAME      = TEME
TIME_SYSTEM    = UTC
MEAN_ELEMENT_THEORY = SGP/SGP4

EPOCH          = 2025-11-28T14:00:01.999872
MEAN_MOTION    = 15.85161054
ECCENTRICITY   = .00013637
INCLINATION    = 43.0008
RA_OF_ASC_NODE = 138.6661
ARG_OF_PERICENTER = 270.3300
MEAN_ANOMALY   = 275.0116

EPHEMERIS_TYPE = 0
CLASSIFICATION_TYPE = U
NORAD_CAT_ID   = 66542
ELEMENT_SET_NO = 999
REV_AT_EPOCH   = 272
BSTAR          = -.74807199E-2
MEAN_MOTION_DOT = -.1602252E-1
MEAN_MOTION_DDOT = 0

CCSDS_OMM_VERS = 2.0
CREATION_DATE  = 
ORIGINATOR     = 

OBJECT_NAME    = STARLINK-35315
OBJECT_ID      = 2025-265AD
CENTER_NAME    = EARTH
REF_FRAME      = TEME
TIME_SYSTEM    = UTC
MEAN_ELEMENT_THEORY = SGP/SGP4

EPOCH          = 2025-11-28T14:00:01.999872
MEAN_MOTION    = 15.85176280
ECCENTRICITY   = .00013876
INCLINATION    = 43.0010
RA_OF_ASC_NODE = 138.6605
ARG_OF_PERICENTER = 268.5626
MEAN_ANOMALY   = 278.8052

EPHEMERIS_TYPE = 0
CLASSIFICATION_TYPE = U
NORAD_CAT_ID   = 66543
ELEMENT_SET_NO = 999
REV_AT_EPOCH   = 261
BSTAR          = -.7500173E-2
MEAN_MOTION_DOT = -.1606954E-1
MEAN_MOTION_DDOT = 0

CCSDS_OMM_VERS = 2.0
CREATION_DATE  = 
ORIGINATOR     = 

OBJECT_NAME    = STARLINK-35728
OBJECT_ID      = 2025-265AE
CENTER_NAME    = EARTH
REF_FRAME      = TEME
TIME_SYSTEM    = UTC
MEAN_ELEMENT_THEORY = SGP/SGP4

EPOCH          = 2025-11-28T14:00:01.999872
MEAN_MOTION    = 15.85200151
ECCENTRICITY   = .00013805
INCLINATION    = 43.0008
RA_OF_ASC_NODE = 138.6561
ARG_OF_PERICENTER = 265.6113
MEAN_ANOMALY   = 283.6491

EPHEMERIS_TYPE = 0
CLASSIFICATION_TYPE = U
NORAD_CAT_ID   = 66544
ELEMENT_SET_NO = 999
REV_AT_EPOCH   = 272
BSTAR          = -.75226149E-2
MEAN_MOTION_DOT = -.1612786E-1
MEAN_MOTION_DDOT = 0

CCSDS_OMM_VERS = 2.0
CREATION_DATE  = 
ORIGINATOR     = 

OBJECT_NAME    = SHIJIAN-30A
OBJECT_ID      = 2025-266A
CENTER_NAME    = EARTH
REF_FRAME      = TEME
TIME_SYSTEM    = UTC
MEAN_ELEMENT_THEORY = SGP/SGP4

EPOCH          = 2025-11-28T17:02:47.239008
MEAN_MOTION    = 15.15201012
ECCENTRICITY   = .0012635
INCLINATION    = 51.7981
RA_OF_ASC_NODE = 38.5726
ARG_OF_PERICENTER = 305.2951
MEAN_ANOMALY   = 54.6843

EPHEMERIS_TYPE = 0
CLASSIFICATION_TYPE = U
NORAD_CAT_ID   = 66545
ELEMENT_SET_NO = 999
REV_AT_EPOCH   = 145
BSTAR          = .60153E-3
MEAN_MOTION_DOT = .11166E-3
MEAN_MOTION_DDOT = 0

